[
  {
    "OBJECT_NAME": "STARLINK-2576",
    "OBJECT_ID": "2021-038AZ",
    "EPOCH": "2023-02-11T19:37:47.982144",
    "MEAN_MOTION": 15.06404433,
    "ECCENTRICITY": 0.0001405,
    "INCLINATION": 53.0543,
    "RA_OF_ASC_NODE": 337.8955,
    "ARG_OF_PERICENTER": 76.6026,
    "MEAN_ANOMALY": 283.5119,
    "EPHEMERIS_TYPE": 0,
    "CLASSIFICATION_TYPE": "U",
    "NORAD_CAT_ID": 48400,
    "ELEMENT_SET_NO": 999,
    "REV_AT_EPOCH": 9821,
    "BSTAR": 0.00087248,
    "MEAN_MOTION_DOT": 0.00012739,
    "MEAN_MOTION_DDOT": 0
  },
  {
    "OBJECT_NAME": "STARLINK-2571",
    "OBJECT_ID": "2021-038BA",
    "EPOCH": "2023-02-11T20:30:52.512480",
    "MEAN_MOTION": 15.06396341,
    "ECCENTRICITY": 0.0001593,
    "INCLINATION": 53.0543,
    "RA_OF_ASC_NODE": 337.7509,
    "ARG_OF_PERICENTER": 110.4321,
    "MEAN_ANOMALY": 249.6839,
    "EPHEMERIS_TYPE": 0,
    "CLASSIFICATION_TYPE": "U",
    "NORAD_CAT_ID": 48401,
    "ELEMENT_SET_NO": 999,
    "REV_AT_EPOCH": 9880,
    "BSTAR": 0.00088938,
    "MEAN_MOTION_DOT": 0.00012989,
    "MEAN_MOTION_DDOT": 0
  },
  {
    "OBJECT_NAME": "STARLINK-2560",
    "OBJECT_ID": "2021-038BB",
    "EPOCH": "2023-02-11T19:31:08.129856",
    "MEAN_MOTION": 15.06411371,
    "ECCENTRICITY": 0.0001478,
    "INCLINATION": 53.0535,
    "RA_OF_ASC_NODE": 337.9156,
    "ARG_OF_PERICENTER": 87.4601,
    "MEAN_ANOMALY": 272.6557,
    "EPHEMERIS_TYPE": 0,
    "CLASSIFICATION_TYPE": "U",
    "NORAD_CAT_ID": 48402,
    "ELEMENT_SET_NO": 999,
    "REV_AT_EPOCH": 9821,
    "BSTAR": 0.00086793,
    "MEAN_MOTION_DOT": 0.00012674,
    "MEAN_MOTION_DDOT": 0
  },
  {
    "OBJECT_NAME": "STARLINK-2561",
    "OBJECT_ID": "2021-038BC",
    "EPOCH": "2023-02-11T19:27:11.485440",
    "MEAN_MOTION": 15.06407028,
    "ECCENTRICITY": 0.0001812,
    "INCLINATION": 53.0546,
    "RA_OF_ASC_NODE": 337.9281,
    "ARG_OF_PERICENTER": 69.2183,
    "MEAN_ANOMALY": 290.8999,
    "EPHEMERIS_TYPE": 0,
    "CLASSIFICATION_TYPE": "U",
    "NORAD_CAT_ID": 48403,
    "ELEMENT_SET_NO": 999,
    "REV_AT_EPOCH": 9821,
    "BSTAR": 0.001103,
    "MEAN_MOTION_DOT": 0.00016189,
    "MEAN_MOTION_DDOT": 0
  },
  {
    "OBJECT_NAME": "STARLINK-2593",
    "OBJECT_ID": "2021-038BD",
    "EPOCH": "2023-02-11T19:21:52.198560",
    "MEAN_MOTION": 15.06402741,
    "ECCENTRICITY": 0.0001037,
    "INCLINATION": 53.0527,
    "RA_OF_ASC_NODE": 337.9529,
    "ARG_OF_PERICENTER": 79.2181,
    "MEAN_ANOMALY": 280.8924,
    "EPHEMERIS_TYPE": 0,
    "CLASSIFICATION_TYPE": "U",
    "NORAD_CAT_ID": 48404,
    "ELEMENT_SET_NO": 999,
    "REV_AT_EPOCH": 9821,
    "BSTAR": 0.00014901,
    "MEAN_MOTION_DOT": 1.939e-5,
    "MEAN_MOTION_DDOT": 0
  },
  {
    "OBJECT_NAME": "STARLINK-2570",
    "OBJECT_ID": "2021-038BE",
    "EPOCH": "2023-02-11T19:16:34.076352",
    "MEAN_MOTION": 15.06380853,
    "ECCENTRICITY": 0.0001289,
    "INCLINATION": 53.0554,
    "RA_OF_ASC_NODE": 337.9598,
    "ARG_OF_PERICENTER": 98.9343,
    "MEAN_ANOMALY": 261.1792,
    "EPHEMERIS_TYPE": 0,
    "CLASSIFICATION_TYPE": "U",
    "NORAD_CAT_ID": 48405,
    "ELEMENT_SET_NO": 999,
    "REV_AT_EPOCH": 9821,
    "BSTAR": 0.00089904,
    "MEAN_MOTION_DOT": 0.00013128,
    "MEAN_MOTION_DDOT": 0
  },
  {
    "OBJECT_NAME": "STARLINK-2568",
    "OBJECT_ID": "2021-038BF",
    "EPOCH": "2023-02-11T20:46:47.701632",
    "MEAN_MOTION": 15.06389069,
    "ECCENTRICITY": 0.000108,
    "INCLINATION": 53.054,
    "RA_OF_ASC_NODE": 337.6839,
    "ARG_OF_PERICENTER": 115.4472,
    "MEAN_ANOMALY": 244.6628,
    "EPHEMERIS_TYPE": 0,
    "CLASSIFICATION_TYPE": "U",
    "NORAD_CAT_ID": 48406,
    "ELEMENT_SET_NO": 999,
    "REV_AT_EPOCH": 9881,
    "BSTAR": 0.00092907,
    "MEAN_MOTION_DOT": 0.0001358,
    "MEAN_MOTION_DDOT": 0
  },
  {
    "OBJECT_NAME": "STARLINK-2595",
    "OBJECT_ID": "2021-038BG",
    "EPOCH": "2023-02-11T19:05:56.796864",
    "MEAN_MOTION": 15.06414022,
    "ECCENTRICITY": 0.0001777,
    "INCLINATION": 53.0539,
    "RA_OF_ASC_NODE": 338.002,
    "ARG_OF_PERICENTER": 137.9353,
    "MEAN_ANOMALY": 222.1772,
    "EPHEMERIS_TYPE": 0,
    "CLASSIFICATION_TYPE": "U",
    "NORAD_CAT_ID": 48407,
    "ELEMENT_SET_NO": 999,
    "REV_AT_EPOCH": 9820,
    "BSTAR": 0.0025986,
    "MEAN_MOTION_DOT": 0.00038652,
    "MEAN_MOTION_DDOT": 0
  },
  {
    "OBJECT_NAME": "STARLINK-2592",
    "OBJECT_ID": "2021-038BH",
    "EPOCH": "2023-02-11T03:05:14.404416",
    "MEAN_MOTION": 15.06432836,
    "ECCENTRICITY": 0.0001623,
    "INCLINATION": 53.0532,
    "RA_OF_ASC_NODE": 340.9983,
    "ARG_OF_PERICENTER": 139.0112,
    "MEAN_ANOMALY": 221.0999,
    "EPHEMERIS_TYPE": 0,
    "CLASSIFICATION_TYPE": "U",
    "NORAD_CAT_ID": 48408,
    "ELEMENT_SET_NO": 999,
    "REV_AT_EPOCH": 9810,
    "BSTAR": 0.0021722,
    "MEAN_MOTION_DOT": 0.00032251,
    "MEAN_MOTION_DDOT": 0
  },
  {
    "OBJECT_NAME": "STARLINK-2596",
    "OBJECT_ID": "2021-038BJ",
    "EPOCH": "2023-02-11T19:34:28.710048",
    "MEAN_MOTION": 15.06377467,
    "ECCENTRICITY": 0.000137,
    "INCLINATION": 53.0535,
    "RA_OF_ASC_NODE": 342.9109,
    "ARG_OF_PERICENTER": 92.709,
    "MEAN_ANOMALY": 267.4056,
    "EPHEMERIS_TYPE": 0,
    "CLASSIFICATION_TYPE": "U",
    "NORAD_CAT_ID": 48409,
    "ELEMENT_SET_NO": 999,
    "REV_AT_EPOCH": 9815,
    "BSTAR": -0.00045926,
    "MEAN_MOTION_DOT": -7.111e-5,
    "MEAN_MOTION_DDOT": 0
  },
  {
    "OBJECT_NAME": "STARLINK-2563",
    "OBJECT_ID": "2021-038BK",
    "EPOCH": "2023-02-11T00:34:38.384832",
    "MEAN_MOTION": 15.06422891,
    "ECCENTRICITY": 8.76e-5,
    "INCLINATION": 53.0524,
    "RA_OF_ASC_NODE": 296.4668,
    "ARG_OF_PERICENTER": 105.4026,
    "MEAN_ANOMALY": 254.706,
    "EPHEMERIS_TYPE": 0,
    "CLASSIFICATION_TYPE": "U",
    "NORAD_CAT_ID": 48410,
    "ELEMENT_SET_NO": 999,
    "REV_AT_EPOCH": 9931,
    "BSTAR": 0.0018913,
    "MEAN_MOTION_DOT": 0.00028019,
    "MEAN_MOTION_DDOT": 0
  },
  {
    "OBJECT_NAME": "STARLINK-2505",
    "OBJECT_ID": "2021-038BL",
    "EPOCH": "2023-02-11T16:54:35.229024",
    "MEAN_MOTION": 15.06399107,
    "ECCENTRICITY": 0.0001456,
    "INCLINATION": 53.0529,
    "RA_OF_ASC_NODE": 288.408,
    "ARG_OF_PERICENTER": 121.3931,
    "MEAN_ANOMALY": 238.7201,
    "EPHEMERIS_TYPE": 0,
    "CLASSIFICATION_TYPE": "U",
    "NORAD_CAT_ID": 48411,
    "ELEMENT_SET_NO": 999,
    "REV_AT_EPOCH": 9890,
    "BSTAR": 0.00068436,
    "MEAN_MOTION_DOT": 9.926e-5,
    "MEAN_MOTION_DDOT": 0
  },
  {
    "OBJECT_NAME": "STARLINK-2581",
    "OBJECT_ID": "2021-038BM",
    "EPOCH": "2023-02-11T18:56:44.458080",
    "MEAN_MOTION": 15.06399819,
    "ECCENTRICITY": 6.02e-5,
    "INCLINATION": 53.0502,
    "RA_OF_ASC_NODE": 288.4689,
    "ARG_OF_PERICENTER": 97.6747,
    "MEAN_ANOMALY": 262.431,
    "EPHEMERIS_TYPE": 0,
    "CLASSIFICATION_TYPE": "U",
    "NORAD_CAT_ID": 48412,
    "ELEMENT_SET_NO": 999,
    "REV_AT_EPOCH": 9891,
    "BSTAR": 0.00022698,
    "MEAN_MOTION_DOT": 3.101e-5,
    "MEAN_MOTION_DDOT": 0
  }
]
