STARLINK-2576           
1 48400U 21038AZ  23042.81791646  .00012739  00000+0  87248-3 0  9996
2 48400  53.0543 337.8955 0001405  76.6026 283.5119 15.06404433 98214
STARLINK-2571           
1 48401U 21038BA  23042.85477445  .00012989  00000+0  88938-3 0  9993
2 48401  53.0543 337.7509 0001593 110.4321 249.6839 15.06396341 98807
STARLINK-2560           
1 48402U 21038BB  23042.81328854  .00012674  00000+0  86793-3 0  9997
2 48402  53.0535 337.9156 0001478  87.4601 272.6557 15.06411371 98214
STARLINK-2561           
1 48403U 21038BC  23042.81054960  .00016189  00000+0  11030-2 0  9998
2 48403  53.0546 337.9281 0001812  69.2183 290.8999 15.06407028 98217
STARLINK-2593           
1 48404U 21038BD  23042.80685415  .00001939  00000+0  14901-3 0  9991
2 48404  53.0527 337.9529 0001037  79.2181 280.8924 15.06402741 98214
STARLINK-2570           
1 48405U 21038BE  23042.80317218  .00013128  00000+0  89904-3 0  9993
2 48405  53.0554 337.9598 0001289  98.9343 261.1792 15.06380853 98212
STARLINK-2568           
1 48406U 21038BF  23042.86582988  .00013580  00000+0  92907-3 0  9997
2 48406  53.0540 337.6839 0001080 115.4472 244.6628 15.06389069 98818
STARLINK-2595           
1 48407U 21038BG  23042.79579626  .00038652  00000+0  25986-2 0  9994
2 48407  53.0539 338.0020 0001777 137.9353 222.1772 15.06414022 98206
STARLINK-2592           
1 48408U 21038BH  23042.12863894  .00032251  00000+0  21722-2 0  9998
2 48408  53.0532 340.9983 0001623 139.0112 221.0999 15.06432836 98107
STARLINK-2596           
1 48409U 21038BJ  23042.81561007 -.00007111  00000+0 -45926-3 0  9998
2 48409  53.0535 342.9109 0001370  92.7090 267.4056 15.06377467 98153
STARLINK-2563           
1 48410U 21038BK  23042.02405538  .00028019  00000+0  18913-2 0  9992
2 48410  53.0524 296.4668 0000876 105.4026 254.7060 15.06422891 99312
STARLINK-2505           
1 48411U 21038BL  23042.70457441  .00009926  00000+0  68436-3 0  9990
2 48411  53.0529 288.4080 0001456 121.3931 238.7201 15.06399107 98900
STARLINK-2581           
1 48412U 21038BM  23042.78940345  .00003101  00000+0  22698-3 0  9998
2 48412  53.0502 288.4689 0000602  97.6747 262.4310 15.06399819 98915
